STARLINK-5738           
1 55573U 23020E   26068.20822771 -.00000350  00000+0 -10853-4 0  9993
2 55573  43.0055   7.5340 0001199 274.1323  85.9382 15.02538013168845
KOMPSAT-7               
1 66820U 25279A   26068.87103100  .00004022  00000+0  31599-3 0  9996
2 66820  97.6738  18.4558 0009895 343.5135  16.5766 15.01421798 14723
